satname,norad_id,inclination_deg,eccentricity,mean_motion_rev_per_day,perigee_km,apogee_km,l1,l2
STARLINK-1582,46043,53.163,0.0001445,15.30165673,474.32724138520007,476.3078897546502,1 46043U 20055S   26083.19913464  .00001820  00000+0  73650-4 0  9990,2 46043  53.1630  59.2986 0001445  95.2970 264.8195 15.30165673311100
STARLINK-1591,46045,53.159,0.0001502,15.30204614,474.1719214700297,476.2306642932108,1 46045U 20055U   26083.58335647 -.00018633  00000+0 -61844-3 0  9999,2 46045  53.1590  57.5255 0001502  84.5920  88.0658 15.30204614  5836
STARLINK-1524,46047,53.1624,0.0001501,15.3017774,474.25283645062336,476.3102326947019,1 46047U 20055W   26083.21964644 -.00002377  00000+0 -68189-4 0  9994,2 46047  53.1624  46.3485 0001501  98.4992 261.6179 15.30177740311295
STARLINK-1527,46048,53.162,0.0001323,15.30172965,474.3890830863038,476.20250140313146,1 46048U 20055X   26083.16066030 -.00002615  00000+0 -76243-4 0  9996,2 46048  53.1620  46.7213 0001323  86.5292 273.5860 15.30172965311268
STARLINK-1540,46051,53.1601,0.0001176,15.30204077,474.39694348743524,476.00884903103633,1 46051U 20055AA  26083.18380023  .00002690  00000+0  10291-3 0  9994,2 46051  53.1601  46.5189 0001176  82.1372 277.9763 15.30204077311303
STARLINK-1541,46052,53.1607,0.0001375,15.30183,474.32348593602455,476.20817171395083,1 46052U 20055AB  26083.17329655 -.00001128  00000+0 -25975-4 0  9991,2 46052  53.1607  46.6089 0001375  77.2915 282.8239 15.30183000311269
STARLINK-1543,46053,53.162,0.0001737,15.30164195,474.1315329554527,476.51242460468075,1 46053U 20055AC  26083.17962805  .00001535  00000+0  64025-4 0  9991,2 46053  53.1620  46.6083 0001737  90.7830 269.3369 15.30164195311298
STARLINK-1548,46054,53.1632,0.0001493,15.30192103,474.2154395549587,476.261857523612,1 46054U 20055AD  26083.18699801 -.00004708  00000+0 -14696-3 0  9991,2 46054  53.1632  46.5770 0001493 100.5218 259.5951 15.30192103311291
STARLINK-1554,46055,53.161,0.0001316,15.30177159,474.3813592690967,476.18517948399676,1 46055U 20055AE  26083.18490782 -.00003644  00000+0 -11103-3 0  9997,2 46055  53.1610  46.7098 0001316  94.7485 265.3666 15.30177159311299
STARLINK-1564,46058,53.162,0.000146,15.30241088,474.09181931150124,476.0929622936146,1 46058U 20055AH  26083.18280033  .00006172  00000+0  22006-3 0  9997,2 46058  53.1620  47.0506 0001460  79.6733 280.4433 15.30241088311281
STARLINK-1570,46059,53.1628,0.0001785,15.30176626,474.0615250563642,476.5081966606913,1 46059U 20055AJ  26083.21227892 -.00005460  00000+0 -17247-3 0  9998,2 46059  53.1628  46.4551 0001785  88.9602 271.1603 15.30176626311259
STARLINK-1572,46060,53.1615,0.0001522,15.3017423,474.24892317802096,476.3351069702103,1 46060U 20055AK  26083.16384839 -.00003028  00000+0 -90218-4 0  9997,2 46060  53.1615  46.8846 0001522  98.5804 261.5369 15.30174230311259
STARLINK-1573,46061,53.1623,0.0001495,15.30167937,474.28621498268785,476.33539587651194,1 46061U 20055AL  26083.19647328 -.00001385  00000+0 -34669-4 0  9998,2 46061  53.1623  46.4805 0001495 101.2181 258.8988 15.30167937311295
STARLINK-1577,46063,53.1624,0.0001344,15.30203398,474.28383446805856,476.1260127771284,1 46063U 20055AN  26083.15745213 -.00019972  00000+0 -66392-3 0  9996,2 46063  53.1624  46.6310 0001344 106.3336 253.7813 15.30203398311284
STARLINK-1583,46064,53.1621,0.000175,15.30171903,474.0996119869242,476.49831457407254,1 46064U 20055AP  26083.19331079 -.00002677  00000+0 -78341-4 0  9994,2 46064  53.1621  46.4984 0001750  95.4034 264.7167 15.30171903311281
STARLINK-1525,46066,53.0645,0.0001585,15.30637205,472.823915389934,474.99601427778543,1 46066U 20055AR  26083.58335647  .00485801  00000+0  15163-1 0  9996,2 46066  53.0645  27.9528 0001585 101.0339 196.3033 15.30637205  5839
STARLINK-1536,46070,53.0561,0.0001277,15.06388322,546.3629779761213,548.1317211389978,1 46070U 20055AV  26083.14739238 -.00001907  00000+0 -10922-3 0  9990,2 46070  53.0561  31.7161 0001277  89.9329 270.1806 15.06388322311495
STARLINK-1542,46073,53.0572,0.0001468,15.0638595,546.2379720096551,548.2712669891398,1 46073U 20055AY  26083.53810127 -.00000488  00000+0 -13895-4 0  9999,2 46073  53.0572  29.9634 0001468  89.8182 270.2975 15.06385950311540
STARLINK-1549,46074,53.0557,0.0001954,15.06397638,545.865582614786,548.5720116603061,1 46074U 20055AZ  26083.12526355  .00000734  00000+0  68174-4 0  9994,2 46074  53.0557  31.8153 0001954  81.9844 278.1367 15.06397638311470
STARLINK-1551,46075,53.0582,0.0001618,15.06389688,546.1226364030108,548.3636894237297,1 46075U 20055BA  26083.15108292 -.00003286  00000+0 -20183-3 0  9998,2 46075  53.0582  31.7009 0001618  93.4556 266.6618 15.06389688311481
STARLINK-1552,46076,53.0568,0.0001477,15.06380258,546.2491820668192,548.2949479046165,1 46076U 20055BB  26083.17688274 -.00001497  00000+0 -81661-4 0  9995,2 46076  53.0568  31.5826 0001477  78.2877 281.8277 15.06380258311474
STARLINK-1559,46077,53.0276,0.0004413,15.30961904,469.9177241429916,475.96448567838615,1 46077U 20055BC  26083.51596522  .00034651  00000+0  11489-2 0  9993,2 46077  53.0276   4.8498 0004413  92.5390 267.6115 15.30961904311856
STARLINK-1566,46079,53.0557,0.0001592,15.06386091,546.1516650709955,548.3567096250463,1 46079U 20055BE  26083.12896163 -.00002103  00000+0 -12236-3 0  9997,2 46079  53.0557  31.7987 0001592  90.6119 269.5053 15.06386091311487
STARLINK-1568,46080,53.0614,0.0005901,15.47626045,419.6591234301977,427.6866194404656,1 46080U 20055BF  26082.96421640  .00034480  00000+0  66263-3 0  9994,2 46080  53.0614 324.7954 0005901 161.4705 198.6518 15.47626045312400
STARLINK-1578,46082,53.0561,0.0001567,15.06386029,546.1691685431897,548.3395862008574,1 46082U 20055BH  26083.54178818 -.00001495  00000+0 -81485-4 0  9993,2 46082  53.0561  29.9463 0001567  98.1576 261.9590 15.06386029311546
STARLINK-1579,46083,53.0555,0.0002344,15.06400409,545.5870030043143,548.8336058206232,1 46083U 20055BJ  26083.11326898 -.00002941  00000+0 -17857-3 0  9998,2 46083  53.0555  31.8603 0002344  87.7600 272.3658 15.06400409311476
STARLINK-1585,46117,53.0365,0.0006517,15.93681906,287.6427261987574,296.3365692714151,1 46117U 20057A   26083.58335647  .00428380  83166-4  11610-2 0  9997,2 46117  53.0365 171.3614 0006517 359.5756 191.1660 15.93681906  6058
STARLINK-1593,46119,53.0413,0.0003221,15.79993632,328.29782192797575,332.619499252527,1 46119U 20057C   26083.58335647  .00156629  00000+0  81468-3 0  9993,2 46119  53.0413 195.9441 0003221 342.2555 134.3234 15.79993632  5971
